[ {"name": "STARLINK-31127", "line1": "1 58765U 24011A   26187.19581204 -.00001896  00000+0 -51960-4 0  9993", "line2": "2 58765  53.1592 183.2616 0001068  89.7233 270.3890 15.30179017138412"}, {"name": "STARLINK-31114", "line1": "1 58766U 24011B   26187.13945995 -.00006539  00000+0 -20888-3 0  9992", "line2": "2 58766  53.1577 181.5112 0001289  89.9928 270.1221 15.30193465138437"}, {"name": "STARLINK-31140", "line1": "1 58767U 24011C   26187.18752596 -.00001682  00000+0 -38678-4 0  9992", "line2": "2 58767  53.1599 182.5014 0001235  84.3920 275.7223 15.34375415138429"}, {"name": "STARLINK-31146", "line1": "1 58769U 24011E   26187.25897087 -.00005093  00000+0 -13984-3 0  9999", "line2": "2 58769  53.1589 182.2355 0001081  98.6550 261.4576 15.34368149138431"}, {"name": "STARLINK-31143", "line1": "1 58770U 24011F   26187.20014584 -.00005370  00000+0 -14806-3 0  9991", "line2": "2 58770  53.1593 182.5811 0001171  93.3463 266.7674 15.34368683138422"}, {"name": "STARLINK-31135", "line1": "1 58771U 24011G   26187.19423105 -.00001865  00000+0 -50889-4 0  9990", "line2": "2 58771  53.1593 181.1409 0001143  89.5359 270.5773 15.30180121138441"}, {"name": "STARLINK-31136", "line1": "1 58772U 24011H   26187.18121101 -.00005118  00000+0 -14060-3 0  9996", "line2": "2 58772  53.1593 182.4570 0001252  85.1744 274.9402 15.34367094138410"}, {"name": "STARLINK-31073", "line1": "1 58773U 24011J   26187.19897815 -.00001155  00000+0 -26905-4 0  9999", "line2": "2 58773  53.1594 183.2811 0001196  80.6915 279.4221 15.30186692138414"}, {"name": "STARLINK-31122", "line1": "1 58774U 24011K   26187.13999590  .00002707  00000+0  10355-3 0  9990", "line2": "2 58774  53.1591 183.6169 0001428 104.0511 256.0649 15.30184608138402"}, {"name": "STARLINK-31123", "line1": "1 58775U 24011L   26187.15176332  .00001522  00000+0  56202-4 0  9990", "line2": "2 58775  53.1576 182.2751 0001330  84.6188 275.4966 15.34377435 11675"}, {"name": "STARLINK-31117", "line1": "1 58776U 24011M   26187.14735970  .00005048  00000+0  18241-3 0  9996", "line2": "2 58776  53.1572 183.6614 0003206 119.3907 240.7415 15.30210775138408"}, {"name": "STARLINK-31132", "line1": "1 58777U 24011N   26187.00201278  .00000200  00000+0  18204-4 0  9996", "line2": "2 58777  53.1595  93.2499 0001568 109.8258 250.2912 15.31696823139685"}, {"name": "STARLINK-31120", "line1": "1 58778U 24011P   26187.25686512 -.00003954  00000+0 -10605-3 0  9999", "line2": "2 58778  53.1586 182.2119 0001081  90.8604 269.2522 15.34370656138433"}, {"name": "STARLINK-31142", "line1": "1 58779U 24011Q   26187.14526240 -.00001430  00000+0 -36184-4 0  9997", "line2": "2 58779  53.1579 183.6488 0000932  96.0890 264.0217 15.30183071138409"}, {"name": "STARLINK-31099", "line1": "1 58781U 24011S   26187.14210714 -.00001921  00000+0 -52807-4 0  9991", "line2": "2 58781  53.1593 183.6272 0001054  91.4772 268.6350 15.30175956138404"}, {"name": "STARLINK-31047", "line1": "1 58783U 24011U   26187.15898891 -.00006097  00000+0 -16951-3 0  9990", "line2": "2 58783  53.1586 166.2381 0001222 107.8635 252.2501 15.34389337138640"}, {"name": "STARLINK-31039", "line1": "1 58784U 24011V   26187.20108208 -.00003876  00000+0 -11890-3 0  9992", "line2": "2 58784  53.1585 183.2844 0001167  81.3129 278.8004 15.30176895138411"}, {"name": "STARLINK-31034", "line1": "1 58785U 24011W   26186.99613237 -.00003870  00000+0 -10354-3 0  9999", "line2": "2 58785  53.1589  79.6925 0001418  88.7180 271.3985 15.34375252139870"}, {"name": "STARLINK-31024", "line1": "1 58786U 24011X   26187.14051838 -.00004231  00000+0 -13092-3 0  9995", "line2": "2 58786  53.1582 181.5107 0000576  25.7689 334.3341 15.30173690138433"}, {"name": "STARLINK-31189", "line1": "1 58787U 24012A   26187.12686712 -.00003180  00000+0 -10616-3 0  9991", "line2": "2 58787  43.0010 216.0151 0001126 271.0918  88.9805 15.27559190139352"}, {"name": "STARLINK-31185", "line1": "1 58788U 24012B   26186.79107648 -.00003313  00000+0 -11093-3 0  9998", "line2": "2 58788  42.9988 218.6545 0000854 284.9774  75.0983 15.27576473139290"}, {"name": "STARLINK-31166", "line1": "1 58789U 24012C   26187.07818180 -.00001360  00000+0 -39903-4 0  9992", "line2": "2 58789  43.0018 216.5068 0001406 261.0770  98.9923 15.27567202139344"}, {"name": "STARLINK-31187", "line1": "1 58790U 24012D   26186.78978029  .00001587  00000+0  67179-4 0  9995", "line2": "2 58790  43.0004 218.6437 0001398 274.7983  85.2709 15.27580664139293"}, {"name": "STARLINK-31162", "line1": "1 58791U 24012E   26187.07689625 -.00001776  00000+0 -55039-4 0  9994", "line2": "2 58791  42.9993 216.5032 0001001 234.1173 125.9586 15.27568999139347"}, {"name": "STARLINK-31184", "line1": "1 58793U 24012G   26187.07173169  .00003445  00000+0  13456-3 0  9996", "line2": "2 58793  43.0033 216.4633 0002066 271.1884  88.8731 15.27607040139344"}, {"name": "STARLINK-31192", "line1": "1 58794U 24012H   26187.11416305 -.00003092  00000+0 -10296-3 0  9993", "line2": "2 58794  42.9991 216.7714 0001152 278.5577  81.5144 15.27557203139347"}]