OBJECT_NAME,OBJECT_ID,EPOCH,MEAN_MOTION,ECCENTRICITY,INCLINATION,RA_OF_ASC_NODE,ARG_OF_PERICENTER,MEAN_ANOMALY,EPHEMERIS_TYPE,CLASSIFICATION_TYPE,NORAD_CAT_ID,ELEMENT_SET_NO,REV_AT_EPOCH,BSTAR,MEAN_MOTION_DOT,MEAN_MOTION_DDOT
STARLINK-31127,2024-011A,2026-07-06T04:41:58.160256,15.30179017,.00010689,53.1592,183.2616,89.7233,270.3890,0,U,58765,999,13841,-.51960048E-4,-.1896E-4,0
STARLINK-31114,2024-011B,2026-07-06T03:20:49.339680,15.30193465,.00012896,53.1577,181.5112,89.9928,270.1221,0,U,58766,999,13843,-.20887864E-3,-.6539E-4,0
STARLINK-31140,2024-011C,2026-07-06T04:30:02.242944,15.34375415,.00012356,53.1599,182.5014,84.3920,275.7223,0,U,58767,999,13842,-.38678091E-4,-.1682E-4,0
STARLINK-31146,2024-011E,2026-07-06T06:12:55.083168,15.34368149,.00010818,53.1589,182.2355,98.6550,261.4576,0,U,58769,999,13843,-.13983581E-3,-.5093E-4,0
STARLINK-31143,2024-011F,2026-07-06T04:48:12.600576,15.34368683,.0001171,53.1593,182.5811,93.3463,266.7674,0,U,58770,999,13842,-.14805792E-3,-.537E-4,0
STARLINK-31135,2024-011G,2026-07-06T04:39:41.562720,15.30180121,.00011438,53.1593,181.1409,89.5359,270.5773,0,U,58771,999,13844,-.50889014E-4,-.1865E-4,0
STARLINK-31136,2024-011H,2026-07-06T04:20:56.631264,15.34367094,.00012525,53.1593,182.4570,85.1744,274.9402,0,U,58772,999,13841,-.14059947E-3,-.5118E-4,0
STARLINK-31073,2024-011J,2026-07-06T04:46:31.712160,15.30186692,.00011968,53.1594,183.2811,80.6915,279.4221,0,U,58773,999,13841,-.26905174E-4,-.1155E-4,0
STARLINK-31122,2024-011K,2026-07-06T03:21:35.645760,15.30184608,.00014283,53.1591,183.6169,104.0511,256.0649,0,U,58774,999,13840,.10355243E-3,.2707E-4,0
STARLINK-31123,2024-011L,2026-07-06T03:38:32.350848,15.34377435,.00013303,53.1576,182.2751,84.6188,275.4966,0,U,58775,999,1167,.56201748E-4,.1522E-4,0
STARLINK-31117,2024-011M,2026-07-06T03:32:11.878080,15.30210775,.00032064,53.1572,183.6614,119.3907,240.7415,0,U,58776,999,13840,.18241098E-3,.5048E-4,0
STARLINK-31132,2024-011N,2026-07-06T00:02:53.904192,15.31696823,.00015689,53.1595,93.2499,109.8258,250.2912,0,U,58777,999,13968,.18204361E-4,.2E-5,0
STARLINK-31120,2024-011P,2026-07-06T06:09:53.146368,15.34370656,.00010811,53.1586,182.2119,90.8604,269.2522,0,U,58778,999,13843,-.1060472E-3,-.3954E-4,0
STARLINK-31142,2024-011Q,2026-07-06T03:29:10.671360,15.30183071,.00009329,53.1579,183.6488,96.0890,264.0217,0,U,58779,999,13840,-.36183921E-4,-.143E-4,0
STARLINK-31099,2024-011S,2026-07-06T03:24:38.056896,15.30175956,.00010546,53.1593,183.6272,91.4772,268.6350,0,U,58781,999,13840,-.52807422E-4,-.1921E-4,0
STARLINK-31047,2024-011U,2026-07-06T03:48:56.641824,15.34389337,.00012224,53.1586,166.2381,107.8635,252.2501,0,U,58783,999,13864,-.169506E-3,-.6097E-4,0
STARLINK-31039,2024-011V,2026-07-06T04:49:33.491712,15.30176895,.00011677,53.1585,183.2844,81.3129,278.8004,0,U,58784,999,13841,-.11890312E-3,-.3876E-4,0
STARLINK-31034,2024-011W,2026-07-05T23:54:25.836768,15.34375252,.00014181,53.1589,79.6925,88.7180,271.3985,0,U,58785,999,13987,-.10354413E-3,-.387E-4,0
STARLINK-31024,2024-011X,2026-07-06T03:22:20.788032,15.30173690,.00005767,53.1582,181.5107,25.7689,334.3341,0,U,58786,999,13843,-.13092232E-3,-.4231E-4,0
STARLINK-31189,2024-012A,2026-07-06T03:02:41.319168,15.27559190,.00011264,43.0010,216.0151,271.0918,88.9805,0,U,58787,999,13935,-.10616457E-3,-.318E-4,0
STARLINK-31185,2024-012B,2026-07-05T18:59:09.007872,15.27576473,.00008545,42.9988,218.6545,284.9774,75.0983,0,U,58788,999,13929,-.1109258E-3,-.3313E-4,0
STARLINK-31166,2024-012C,2026-07-06T01:52:34.907520,15.27567202,.00014063,43.0018,216.5068,261.0770,98.9923,0,U,58789,999,13934,-.39902828E-4,-.136E-4,0
STARLINK-31187,2024-012D,2026-07-05T18:57:17.017056,15.27580664,.00013988,43.0004,218.6437,274.7983,85.2709,0,U,58790,999,13929,.67179412E-4,.1587E-4,0
STARLINK-31162,2024-012E,2026-07-06T01:50:43.836000,15.27568999,.0001001,42.9993,216.5032,234.1173,125.9586,0,U,58791,999,13934,-.55039373E-4,-.1776E-4,0
STARLINK-31184,2024-012G,2026-07-06T01:43:17.618016,15.27607040,.00020662,43.0033,216.4633,271.1884,88.8731,0,U,58793,999,13934,.13455908E-3,.3445E-4,0
STARLINK-31192,2024-012H,2026-07-06T02:44:23.687520,15.27557203,.00011528,42.9991,216.7714,278.5577,81.5144,0,U,58794,999,13934,-.10295907E-3,-.3092E-4,0
